[{"OBJECT_NAME":"CONTINUUM-1","OBJECT_ID":"2023-001AN","EPOCH":"2026-03-09T23:17:35.458656","MEAN_MOTION":15.27981258,"ECCENTRICITY":0.00109493,"INCLINATION":97.3456,"RA_OF_ASC_NODE":133.3964,"ARG_OF_PERICENTER":60.1976,"MEAN_ANOMALY":300.0351,"EPHEMERIS_TYPE":0,"CLASSIFICATION_TYPE":"U","NORAD_CAT_ID":55045,"ELEMENT_SET_NO":999,"REV_AT_EPOCH":17709,"BSTAR":0.00052859897,"MEAN_MOTION_DOT":0.00014395,"MEAN_MOTION_DDOT":0},{"OBJECT_NAME":"STARLINK-31968","OBJECT_ID":"2024-106F","EPOCH":"2026-03-09T22:27:55.725696","MEAN_MOTION":15.27564726,"ECCENTRICITY":0.00011388,"INCLINATION":43.0006,"RA_OF_ASC_NODE":330.8642,"ARG_OF_PERICENTER":259.8093,"MEAN_ANOMALY":100.263,"EPHEMERIS_TYPE":0,"CLASSIFICATION_TYPE":"U","NORAD_CAT_ID":59927,"ELEMENT_SET_NO":999,"REV_AT_EPOCH":10061,"BSTAR":-2.2937229e-5,"MEAN_MOTION_DOT":-8.93e-6,"MEAN_MOTION_DDOT":0}]
